{
"type": "FeatureCollection",
"name": "enderecos_retrofit_geocode_v1_edit",
"features": [
{ "type": "Feature", "properties": { "original_ID": 1, "original_ENDEREÇO OSM": "Avenida Vila Ema, 453, São Paulo, SP, Brasil", "original_OBS": "—", "original_Ocupação / Endereço": "Av. Vila Ema, 453", "original_Contribuinte": "102.083.0023-5", "original_Propriedade": "Privada", "original_Zoneamento": "ZEIS 3", "original_Movimento de Moradia": "Sem movimento definido", "original_Nº UHs Previstas": "202 – Novo EHIS", "original_Valor Venal (2023)": "R$ 11.838.593,00", "original_Dívida Ativa (Agosto/2023)": "R$ 9.172.057,07", "original_Projeto": "Estudo preliminar SEHAB/Proj.", "original_Origem": "Edifícios Retrofit - Centro/SEHAB - Proj. Áreas Particulares - Aguardando publicação de decreto (DIS)", "lat": -23.5796357, "lon": -46.5720876, "formatted": "Avenida Vila Ema 453, São Paulo - SP, 03137-070, Brasil", "name": "Avenida Vila Ema", "housenumber": 453, "street": "Avenida Vila Ema", "postcode": "03137-070", "district": "Água Rasa", "suburb": null, "city": "São Paulo", "county": "Região Metropolitana de São Paulo", "state": "São Paulo", "state_code": "SP", "country": "Brasil", "country_code": "br", "confidence": 0.75, "confidence_city_level": 1.0, "confidence_street_level": 1.0, "confidence_building_level": 0.75, "attribution": "© OpenStreetMap contributors", "attribution_license": "Open Database License", "attribution_url": "https://www.openstreetmap.org/copyright", "VALID": 1 }, "geometry": { "type": "Point", "coordinates": [ -46.571791311684784, -23.579416129194968 ] } },
{ "type": "Feature", "properties": { "original_ID": 2, "original_ENDEREÇO OSM": "Rua Alexandrino da Silveira Bueno, 153, São Paulo, SP, Brasil", "original_OBS": "—", "original_Ocupação / Endereço": "Rua Alexandrino da Silveira Bueno, 153", "original_Contribuinte": "035.098.0027-3", "original_Propriedade": "Privada", "original_Zoneamento": "ZEIS 3", "original_Movimento de Moradia": "Sem movimento definido", "original_Nº UHs Previstas": "138 – Novo EHIS", "original_Valor Venal (2023)": "R$ 8.816.696,00", "original_Dívida Ativa (Agosto/2023)": "R$ 6.351.093,29", "original_Projeto": "Estudo preliminar SEHAB/Proj.", "original_Origem": "Edifícios Retrofit - Centro/SEHAB - Proj. Áreas Particulares - Aguardando publicação de decreto (DIS)", "lat": -23.5651525, "lon": -46.6136472, "formatted": "Rua Alexandrino da Silveira Bueno 153, Cambuci, São Paulo - SP, 01515-000, Brasil", "name": "Rua Alexandrino da Silveira Bueno", "housenumber": 153, "street": "Rua Alexandrino da Silveira Bueno", "postcode": "01515-000", "district": "Cambuci", "suburb": "Cambuci", "city": "São Paulo", "county": "Região Metropolitana de São Paulo", "state": "São Paulo", "state_code": "SP", "country": "Brasil", "country_code": "br", "confidence": 1.0, "confidence_city_level": 1.0, "confidence_street_level": 1.0, "confidence_building_level": 1.0, "attribution": "© OpenStreetMap contributors", "attribution_license": "Open Database License", "attribution_url": "https://www.openstreetmap.org/copyright", "VALID": 1 }, "geometry": { "type": "Point", "coordinates": [ -46.613620745686148, -23.565047013423488 ] } },
{ "type": "Feature", "properties": { "original_ID": 3, "original_ENDEREÇO OSM": "Rua Doutor Penaforte Mendes, 30, São Paulo, SP, Brasil", "original_OBS": "—", "original_Ocupação / Endereço": "Rua Dr. Penaforte Mendes, 30", "original_Contribuinte": "010.035.0119-2", "original_Propriedade": "Privada", "original_Zoneamento": "ZEIS 3", "original_Movimento de Moradia": "MMC", "original_Nº UHs Previstas": "22 – Retrofit", "original_Valor Venal (2023)": "R$ 4.174.996,00", "original_Dívida Ativa (Agosto/2023)": "R$ 3.721.142,72", "original_Projeto": "Estudo de massa SEHAB/Proj.", "original_Origem": "Edifícios Retrofit - Centro/SEHAB - Proj. Áreas Particulares - Aguardando publicação de decreto (DIS)", "lat": -23.555701560040674, "lon": -46.651200386475999, "formatted": "Rua Doutor Penaforte Mendes 30, Bela Vista, São Paulo - SP, 01308-010, Brasil", "name": null, "housenumber": 30, "street": "Rua Doutor Penaforte Mendes", "postcode": "01308-010", "district": "Consolação", "suburb": "Bela Vista", "city": "São Paulo", "county": "Região Metropolitana de São Paulo", "state": "São Paulo", "state_code": "SP", "country": "Brasil", "country_code": "br", "confidence": 1.0, "confidence_city_level": 1.0, "confidence_street_level": 1.0, "confidence_building_level": 1.0, "attribution": "© OpenStreetMap contributors", "attribution_license": "Open Database License", "attribution_url": "https://www.openstreetmap.org/copyright", "VALID": 1 }, "geometry": { "type": "Point", "coordinates": [ -46.651168641299371, -23.555521009348592 ] } },
{ "type": "Feature", "properties": { "original_ID": 4, "original_ENDEREÇO OSM": "Rua Sete de Abril, 176, São Paulo, SP, Brasil", "original_OBS": "—", "original_Ocupação / Endereço": "Rua Sete de Abril, 176", "original_Contribuinte": "006.024.CD01", "original_Propriedade": "Privada", "original_Zoneamento": "ZEIS 3", "original_Movimento de Moradia": "UAMP", "original_Nº UHs Previstas": "42 – Retrofit", "original_Valor Venal (2023)": "R$ 4.062.346,00", "original_Dívida Ativa (Agosto/2023)": "R$ 134.682,69", "original_Projeto": "Estudo de massa SEHAB/Proj.", "original_Origem": "Edifícios Retrofit - Centro/SEHAB - Proj. Áreas Particulares - Aguardando publicação de decreto (DIS)", "lat": -23.5462125, "lon": -46.6409527, "formatted": "Rua Sete de Abril 176, República, São Paulo - SP, 01044-000, Brasil", "name": null, "housenumber": 176, "street": "Rua Sete de Abril", "postcode": "01044-000", "district": "República", "suburb": "República", "city": "São Paulo", "county": "Região Metropolitana de São Paulo", "state": "São Paulo", "state_code": "SP", "country": "Brasil", "country_code": "br", "confidence": 1.0, "confidence_city_level": 1.0, "confidence_street_level": 1.0, "confidence_building_level": 1.0, "attribution": "© OpenStreetMap contributors", "attribution_license": "Open Database License", "attribution_url": "https://www.openstreetmap.org/copyright", "VALID": 1 }, "geometry": { "type": "Point", "coordinates": [ -46.641017513068952, -23.546353369221297 ] } },
{ "type": "Feature", "properties": { "original_ID": 5, "original_ENDEREÇO OSM": "Rua Conselheiro Nébias, 314, São Paulo, SP, Brasil", "original_OBS": "—", "original_Ocupação / Endereço": "Rua Conselheiro Nébias, 314", "original_Contribuinte": "008.071.0068-4", "original_Propriedade": "Privada", "original_Zoneamento": "ZEIS 3", "original_Movimento de Moradia": "FLM", "original_Nº UHs Previstas": "42 – Retrofit", "original_Valor Venal (2023)": "R$ 4.350.966,00", "original_Dívida Ativa (Agosto/2023)": "Não consta", "original_Projeto": "Estudo de massa SEHAB/Proj.", "original_Origem": "Edifícios Retrofit - Centro/SEHAB - Proj. Áreas Particulares - Aguardando publicação de decreto (DIS)", "lat": -23.539751789409355, "lon": -46.642404866237079, "formatted": "Rua Conselheiro Nébias 314, Campos Elísios, São Paulo - SP, 01203-001, Brasil", "name": null, "housenumber": 314, "street": "Rua Conselheiro Nébias", "postcode": "01203-001", "district": "Santa Cecília", "suburb": "Campos Elísios", "city": "São Paulo", "county": "Região Metropolitana de São Paulo", "state": "São Paulo", "state_code": "SP", "country": "Brasil", "country_code": "br", "confidence": 1.0, "confidence_city_level": 1.0, "confidence_street_level": 1.0, "confidence_building_level": 1.0, "attribution": "© OpenStreetMap contributors", "attribution_license": "Open Database License", "attribution_url": "https://www.openstreetmap.org/copyright", "VALID": 1 }, "geometry": { "type": "Point", "coordinates": [ -46.642295080834565, -23.539727319169032 ] } },
{ "type": "Feature", "properties": { "original_ID": 6, "original_ENDEREÇO OSM": "Rua Marconi, 138, São Paulo, SP, Brasil", "original_OBS": "—", "original_Ocupação / Endereço": "Rua Marconi, 138", "original_Contribuinte": "006.024.CD06", "original_Propriedade": "Privada", "original_Zoneamento": "ZEIS 3", "original_Movimento de Moradia": "MMPT", "original_Nº UHs Previstas": "88 – Retrofit", "original_Valor Venal (2023)": "R$ 11.678.818,00", "original_Dívida Ativa (Agosto/2023)": "R$ 1.433.329,95", "original_Projeto": "Estudo de massa SEHAB/Proj.", "original_Origem": "Edifícios Retrofit - Centro/SEHAB - Proj. Áreas Particulares - Aguardando publicação de decreto (DIS)", "lat": -23.5453973, "lon": -46.6399867, "formatted": "Rua Marconi 138, República, São Paulo - SP, 01047-000, Brasil", "name": null, "housenumber": 138, "street": "Rua Marconi", "postcode": "01047-000", "district": "República", "suburb": "República", "city": "São Paulo", "county": "Região Metropolitana de São Paulo", "state": "São Paulo", "state_code": "SP", "country": "Brasil", "country_code": "br", "confidence": 1.0, "confidence_city_level": 1.0, "confidence_street_level": 1.0, "confidence_building_level": 1.0, "attribution": "© OpenStreetMap contributors", "attribution_license": "Open Database License", "attribution_url": "https://www.openstreetmap.org/copyright", "VALID": 1 }, "geometry": { "type": "Point", "coordinates": [ -46.640882178524095, -23.546042123900314 ] } },
{ "type": "Feature", "properties": { "original_ID": 7, "original_ENDEREÇO OSM": "Rua José Bonifácio, 137, São Paulo, SP, Brasil", "original_OBS": "—", "original_Ocupação / Endereço": "Rua José Bonifácio, 137", "original_Contribuinte": "005.011.0025-3", "original_Propriedade": "Privada", "original_Zoneamento": "ZEIS 3", "original_Movimento de Moradia": "FLM", "original_Nº UHs Previstas": "45 – Retrofit", "original_Valor Venal (2023)": "R$ 5.867.685,00", "original_Dívida Ativa (Agosto/2023)": "Não consta", "original_Projeto": "Projeto COHAB", "original_Origem": "Edifícios Retrofit - Centro/SEHAB - Proj. Áreas Particulares - Aguardando publicação de decreto (DIS)", "lat": -23.549041, "lon": -46.635422, "formatted": "Rua José Bonifácio 137, Glicério, São Paulo - SP, 01003-000, Brasil", "name": "Rua José Bonifácio", "housenumber": 137, "street": "Rua José Bonifácio", "postcode": "01003-000", "district": null, "suburb": "Glicério", "city": "São Paulo", "county": "Região Metropolitana de São Paulo", "state": "São Paulo", "state_code": "SP", "country": "Brasil", "country_code": "br", "confidence": 1.0, "confidence_city_level": 1.0, "confidence_street_level": 1.0, "confidence_building_level": 1.0, "attribution": "© OpenStreetMap contributors", "attribution_license": "Open Database License", "attribution_url": "https://www.openstreetmap.org/copyright", "VALID": 1 }, "geometry": { "type": "Point", "coordinates": [ -46.635650829814878, -23.549242714143169 ] } },
{ "type": "Feature", "properties": { "original_ID": 8, "original_ENDEREÇO OSM": "Rua Barão de Jaguara, s/n, São Paulo, SP, Brasil", "original_OBS": "Esquina com Rua da Mooca", "original_Ocupação / Endereço": "Rua Barão de Jaguara S/N / Rua da Mooca, 775", "original_Contribuinte": "003.045.0043-7", "original_Propriedade": "Privada", "original_Zoneamento": "ZC", "original_Movimento de Moradia": "Sem movimento definido", "original_Nº UHs Previstas": "647 – Novo EHIS", "original_Valor Venal (2023)": "R$ 46.168.016,00", "original_Dívida Ativa (Agosto/2023)": "Não consta", "original_Projeto": "Sem projeto", "original_Origem": "Edifícios Retrofit - Centro/SEHAB - Proj. Áreas Particulares - Aguardando publicação de decreto (DIS)", "lat": -23.5619631, "lon": -46.619406, "formatted": "Rua Barão de Jaguara, Cambuci, São Paulo - SP, 01523-010, Brasil", "name": "Rua Barão de Jaguara", "housenumber": null, "street": "Rua Barão de Jaguara", "postcode": "01523-010", "district": "Cambuci", "suburb": "Cambuci", "city": "São Paulo", "county": "Região Metropolitana de São Paulo", "state": "São Paulo", "state_code": "SP", "country": "Brasil", "country_code": "br", "confidence": 0.5, "confidence_city_level": 1.0, "confidence_street_level": 1.0, "confidence_building_level": null, "attribution": "© OpenStreetMap contributors", "attribution_license": "Open Database License", "attribution_url": "https://www.openstreetmap.org/copyright", "VALID": 0 }, "geometry": { "type": "Point", "coordinates": [ -46.617064793223513, -23.553965960920532 ] } },
{ "type": "Feature", "properties": { "original_ID": 9, "original_ENDEREÇO OSM": "Rua da Mooca, 775, São Paulo, SP, Brasil", "original_OBS": "Mesmo lote do item 8", "original_Ocupação / Endereço": "Rua do Ouvidor, 63", "original_Contribuinte": "005.013.0011-2", "original_Propriedade": "Estado de São Paulo", "original_Zoneamento": "ZEIS 3", "original_Movimento de Moradia": "Coletivo Ouvidor", "original_Nº UHs Previstas": "51 – Retrofit", "original_Valor Venal (2023)": "R$ 6.475.125,00", "original_Dívida Ativa (Agosto/2023)": "R$ 56.680,61", "original_Projeto": "Estudo de massa SEHAB/Proj.", "original_Origem": "Edifícios Retrofit - Centro / Outras titularidades", "lat": -23.553760895095756, "lon": -46.617798833684709, "formatted": "Rua da Mooca 775, São Paulo - SP, 03103-000, Brasil", "name": null, "housenumber": 775, "street": "Rua da Mooca", "postcode": "03103-000", "district": "Cambuci", "suburb": null, "city": "São Paulo", "county": "Região Metropolitana de São Paulo", "state": "São Paulo", "state_code": "SP", "country": "Brasil", "country_code": "br", "confidence": 1.0, "confidence_city_level": 1.0, "confidence_street_level": 1.0, "confidence_building_level": 1.0, "attribution": "© OpenStreetMap contributors", "attribution_license": "Open Database License", "attribution_url": "https://www.openstreetmap.org/copyright", "VALID": 1 }, "geometry": { "type": "Point", "coordinates": [ -46.617847840913733, -23.553702740497645 ] } },
{ "type": "Feature", "properties": { "original_ID": 10, "original_ENDEREÇO OSM": "Rua do Ouvidor, 63, São Paulo, SP, Brasil", "original_OBS": "—", "original_Ocupação / Endereço": "Rua Benjamin Constant, 170", "original_Contribuinte": "005.011.0026-1", "original_Propriedade": "Universidade de São Paulo / USP", "original_Zoneamento": "ZEIS 3", "original_Movimento de Moradia": "MPLM", "original_Nº UHs Previstas": "52 – Retrofit", "original_Valor Venal (2023)": "R$ 16.465.526,00", "original_Dívida Ativa (Agosto/2023)": "R$ 62.205,11", "original_Projeto": "Projeto COHAB", "original_Origem": "Edifícios Retrofit - Centro / Outras titularidades", "lat": -23.549329, "lon": -46.6381964, "formatted": "Rua do Ouvidor 63, Glicério, São Paulo - SP, 01005-030, Brasil", "name": null, "housenumber": 63, "street": "Rua do Ouvidor", "postcode": "01005-030", "district": null, "suburb": "Glicério", "city": "São Paulo", "county": "Região Metropolitana de São Paulo", "state": "São Paulo", "state_code": "SP", "country": "Brasil", "country_code": "br", "confidence": 1.0, "confidence_city_level": 1.0, "confidence_street_level": 1.0, "confidence_building_level": 1.0, "attribution": "© OpenStreetMap contributors", "attribution_license": "Open Database License", "attribution_url": "https://www.openstreetmap.org/copyright", "VALID": 1 }, "geometry": { "type": "Point", "coordinates": [ -46.638134893720284, -23.549383562022335 ] } },
{ "type": "Feature", "properties": { "original_ID": 11, "original_ENDEREÇO OSM": "Rua Benjamin Constant, 170, São Paulo, SP, Brasil", "original_OBS": "—", "original_Ocupação / Endereço": "Av. Nove de Julho, S/N", "original_Contribuinte": "006.020.0045-9 / 006.020.0550-7", "original_Propriedade": "IPREM", "original_Zoneamento": "ZEIS 3", "original_Movimento de Moradia": "MSTC", "original_Nº UHs Previstas": "139 – Retrofit", "original_Valor Venal (2023)": "R$ 59.427.061,00", "original_Dívida Ativa (Agosto/2023)": "Não consta", "original_Projeto": "Projeto do movimento de moradia", "original_Origem": "Edifícios Retrofit - Centro / Outras titularidades", "lat": -23.62052, "lon": -46.557388, "formatted": "Rua Benjamin Constant 170, Santa Paula, São Caetano do Sul - SP, 09550-160, Brasil", "name": "Rua Benjamin Constant", "housenumber": 170, "street": "Rua Benjamin Constant", "postcode": "09550-160", "district": "São Caetano do Sul", "suburb": "Santa Paula", "city": "São Caetano do Sul", "county": "Região Metropolitana de São Paulo", "state": "São Paulo", "state_code": "SP", "country": "Brasil", "country_code": "br", "confidence": 0.729, "confidence_city_level": 0.729, "confidence_street_level": 0.729, "confidence_building_level": 0.729, "attribution": "© OpenStreetMap contributors", "attribution_license": "Open Database License", "attribution_url": "https://www.openstreetmap.org/copyright", "VALID": 1 }, "geometry": { "type": "Point", "coordinates": [ -46.635688800874391, -23.549613841206913 ] } },
{ "type": "Feature", "properties": { "original_ID": 12, "original_ENDEREÇO OSM": "Avenida Nove de Julho, s/n, São Paulo, SP, Brasil", "original_OBS": "Número não informado", "original_Ocupação / Endereço": "Rua Martins Fontes, 180", "original_Contribuinte": "006.013.1941-9", "original_Propriedade": "INSS", "original_Zoneamento": "ZC", "original_Movimento de Moradia": "MSTC", "original_Nº UHs Previstas": "35 – Retrofit", "original_Valor Venal (2023)": "R$ 48.454.538,00", "original_Dívida Ativa (Agosto/2023)": "R$ 2.082.698,07", "original_Projeto": "Estudo de massa SEHAB/Proj.", "original_Origem": "Edifícios Retrofit - Centro / Outras titularidades", "lat": -23.5692394, "lon": -46.66123, "formatted": "Avenida Nove de Julho, Jardins, São Paulo - SP, 01406-000, Brasil", "name": "Avenida Nove de Julho", "housenumber": null, "street": "Avenida Nove de Julho", "postcode": "01406-000", "district": null, "suburb": "Jardins", "city": "São Paulo", "county": "Região Metropolitana de São Paulo", "state": "São Paulo", "state_code": "SP", "country": "Brasil", "country_code": "br", "confidence": 0.5, "confidence_city_level": 1.0, "confidence_street_level": 1.0, "confidence_building_level": null, "attribution": "© OpenStreetMap contributors", "attribution_license": "Open Database License", "attribution_url": "https://www.openstreetmap.org/copyright", "VALID": 0 }, "geometry": { "type": "Point", "coordinates": [ -46.66123, -23.5692394 ] } },
{ "type": "Feature", "properties": { "original_ID": 13, "original_ENDEREÇO OSM": "Rua Martins Fontes, 180, São Paulo, SP, Brasil", "original_OBS": "—", "original_Ocupação / Endereço": "Rua São Francisco, 77", "original_Contribuinte": "005.007.0003-6", "original_Propriedade": "COHAB", "original_Zoneamento": "ZEIS 3", "original_Movimento de Moradia": "MSTC", "original_Nº UHs Previstas": "—", "original_Valor Venal (2023)": "—", "original_Dívida Ativa (Agosto/2023)": "Não consta", "original_Projeto": "—", "original_Origem": "Edifícios COHAB Passíveis de Retrofit - Centro / Outras titularidades", "lat": -23.548882, "lon": -46.644106, "formatted": "Rua Martins Fontes 180, República, São Paulo - SP, 01050-000, Brasil", "name": "Rua Martins Fontes", "housenumber": 180, "street": "Rua Martins Fontes", "postcode": "01050-000", "district": "República", "suburb": "República", "city": "São Paulo", "county": "Região Metropolitana de São Paulo", "state": "São Paulo", "state_code": "SP", "country": "Brasil", "country_code": "br", "confidence": 1.0, "confidence_city_level": 1.0, "confidence_street_level": 1.0, "confidence_building_level": 1.0, "attribution": "© OpenStreetMap contributors", "attribution_license": "Open Database License", "attribution_url": "https://www.openstreetmap.org/copyright", "VALID": 1 }, "geometry": { "type": "Point", "coordinates": [ -46.644256789588987, -23.548912422460937 ] } },
{ "type": "Feature", "properties": { "original_ID": 14, "original_ENDEREÇO OSM": "Rua São Francisco, 77, São Paulo, SP, Brasil", "original_OBS": "—", "original_Ocupação / Endereço": "Av. Celso Garcia, 2092", "original_Contribuinte": "029.002.0098-9", "original_Propriedade": "COHAB", "original_Zoneamento": "ZEIS 3", "original_Movimento de Moradia": "MMC", "original_Nº UHs Previstas": "—", "original_Valor Venal (2023)": "—", "original_Dívida Ativa (Agosto/2023)": "Não consta", "original_Projeto": "—", "original_Origem": "Edifícios COHAB Passíveis de Retrofit - Centro / Outras titularidades", "lat": -23.5490005, "lon": -46.6381517, "formatted": "Rua São Francisco 77, Glicério, São Paulo - SP, 01005-020, Brasil", "name": null, "housenumber": 77, "street": "Rua São Francisco", "postcode": "01005-020", "district": null, "suburb": "Glicério", "city": "São Paulo", "county": "Região Metropolitana de São Paulo", "state": "São Paulo", "state_code": "SP", "country": "Brasil", "country_code": "br", "confidence": 1.0, "confidence_city_level": 1.0, "confidence_street_level": 1.0, "confidence_building_level": 1.0, "attribution": "© OpenStreetMap contributors", "attribution_license": "Open Database License", "attribution_url": "https://www.openstreetmap.org/copyright", "VALID": 1 }, "geometry": { "type": "Point", "coordinates": [ -46.638211222206195, -23.549122189843761 ] } },
{ "type": "Feature", "properties": { "original_ID": 15, "original_ENDEREÇO OSM": "Avenida Celso Garcia, 2092, São Paulo, SP, Brasil", "original_OBS": "—", "original_Ocupação / Endereço": "Rua Conselheiro Carrão, 202", "original_Contribuinte": "009.007.0043-2", "original_Propriedade": "COHAB", "original_Zoneamento": "ZEIS 3", "original_Movimento de Moradia": "FLM", "original_Nº UHs Previstas": "—", "original_Valor Venal (2023)": "—", "original_Dívida Ativa (Agosto/2023)": "R$ 319.004,22", "original_Projeto": "—", "original_Origem": "Edifícios COHAB Passíveis de Retrofit - Centro / Outras titularidades", "lat": -23.537103433943191, "lon": -46.592063081764216, "formatted": "Avenida Celso Garcia 2092, Belém, São Paulo - SP, 03015-000, Brasil", "name": null, "housenumber": 2092, "street": "Avenida Celso Garcia", "postcode": "03015-000", "district": null, "suburb": "Belém", "city": "São Paulo", "county": "Região Metropolitana de São Paulo", "state": "São Paulo", "state_code": "SP", "country": "Brasil", "country_code": "br", "confidence": 1.0, "confidence_city_level": 1.0, "confidence_street_level": 1.0, "confidence_building_level": 1.0, "attribution": "© OpenStreetMap contributors", "attribution_license": "Open Database License", "attribution_url": "https://www.openstreetmap.org/copyright", "VALID": 1 }, "geometry": { "type": "Point", "coordinates": [ -46.592094165582999, -23.537123605357507 ] } },
{ "type": "Feature", "properties": { "original_ID": 16, "original_ENDEREÇO OSM": "Rua Conselheiro Carrão, 202, São Paulo, SP, Brasil", "original_OBS": "—", "original_Ocupação / Endereço": "Rua Mauá, 340", "original_Contribuinte": "001.019.0082-1", "original_Propriedade": "COHAB", "original_Zoneamento": "ZEIS 3", "original_Movimento de Moradia": "MMU / MMRC / ASTC", "original_Nº UHs Previstas": "—", "original_Valor Venal (2023)": "—", "original_Dívida Ativa (Agosto/2023)": "R$ 2.536.892,54", "original_Projeto": "—", "original_Origem": "Edifícios COHAB Passíveis de Retrofit - Centro / Outras titularidades", "lat": -23.557609134079499, "lon": -46.644211341754364, "formatted": "Rua Conselheiro Carrão 202, Bixiga, São Paulo - SP, 01328-000, Brasil", "name": null, "housenumber": 202, "street": "Rua Conselheiro Carrão", "postcode": "01328-000", "district": null, "suburb": "Bixiga", "city": "São Paulo", "county": "Região Metropolitana de São Paulo", "state": "São Paulo", "state_code": "SP", "country": "Brasil", "country_code": "br", "confidence": 1.0, "confidence_city_level": 1.0, "confidence_street_level": 1.0, "confidence_building_level": 1.0, "attribution": "© OpenStreetMap contributors", "attribution_license": "Open Database License", "attribution_url": "https://www.openstreetmap.org/copyright", "VALID": 1 }, "geometry": { "type": "Point", "coordinates": [ -46.644213325827906, -23.557553249341478 ] } },
{ "type": "Feature", "properties": { "original_ID": 17, "original_ENDEREÇO OSM": "Rua Mauá, 340, São Paulo, SP, Brasil", "original_OBS": "—", "original_Ocupação / Endereço": "Av. São João, 1496", "original_Contribuinte": "007.042.0032-5", "original_Propriedade": "Em desapropriação pela COHAB", "original_Zoneamento": "ZEIS 3", "original_Movimento de Moradia": "Sem movimento definido", "original_Nº UHs Previstas": "—", "original_Valor Venal (2023)": "—", "original_Dívida Ativa (Agosto/2023)": "R$ 453.482,66", "original_Projeto": "—", "original_Origem": "Edifícios COHAB Passíveis de Retrofit - Centro / Outras titularidades", "lat": -23.535661, "lon": -46.636432, "formatted": "Rua Mauá 340, Santa Ifigênia, São Paulo - SP, 01028-000, Brasil", "name": "Rua Mauá", "housenumber": 340, "street": "Rua Mauá", "postcode": "01028-000", "district": "República", "suburb": "Santa Ifigênia", "city": "São Paulo", "county": "Região Metropolitana de São Paulo", "state": "São Paulo", "state_code": "SP", "country": "Brasil", "country_code": "br", "confidence": 1.0, "confidence_city_level": 1.0, "confidence_street_level": 1.0, "confidence_building_level": 1.0, "attribution": "© OpenStreetMap contributors", "attribution_license": "Open Database License", "attribution_url": "https://www.openstreetmap.org/copyright", "VALID": 1 }, "geometry": { "type": "Point", "coordinates": [ -46.636609243902868, -23.535211276664402 ] } },
{ "type": "Feature", "properties": { "original_ID": 18, "original_ENDEREÇO OSM": "Avenida São João, 1496, São Paulo, SP, Brasil", "original_OBS": "—", "original_Ocupação / Endereço": null, "original_Contribuinte": null, "original_Propriedade": null, "original_Zoneamento": null, "original_Movimento de Moradia": null, "original_Nº UHs Previstas": null, "original_Valor Venal (2023)": null, "original_Dívida Ativa (Agosto/2023)": null, "original_Projeto": null, "original_Origem": null, "lat": -23.53814343915262, "lon": -46.647443957942571, "formatted": "Avenida São João 1496, Campos Elísios, São Paulo - SP, 01211-000, Brasil", "name": null, "housenumber": 1496, "street": "Avenida São João", "postcode": "01211-000", "district": "Santa Cecília", "suburb": "Campos Elísios", "city": "São Paulo", "county": "Região Metropolitana de São Paulo", "state": "São Paulo", "state_code": "SP", "country": "Brasil", "country_code": "br", "confidence": 1.0, "confidence_city_level": 1.0, "confidence_street_level": 1.0, "confidence_building_level": 1.0, "attribution": "© OpenStreetMap contributors", "attribution_license": "Open Database License", "attribution_url": "https://www.openstreetmap.org/copyright", "VALID": 1 }, "geometry": { "type": "Point", "coordinates": [ -46.647246873304319, -23.53826579035422 ] } }
]
}
